NORAD_CAT_ID,OBJECT_NAME,OBJECT_TYPE,EPOCH,MEAN_MOTION,ECCENTRICITY,INCLINATION,RA_OF_ASC_NODE,ARG_OF_PERICENTER,MEAN_ANOMALY,BSTAR,MEAN_MOTION_DOT,MEAN_MOTION_DDOT,TLE_LINE0,TLE_LINE1,TLE_LINE2,SEMIMAJOR_AXIS,PERIOD,APOGEE,PERIGEE,DECAYED
53164.0,STARLINK-4116,PAYLOAD,2022-08-30 22:00:00,15.65357695,0.0001060999999999,53.2176,187.575,82.7873,242.6899,-0.011533,-0.01050362,0.0,0 STARLINK-4116,1 53164U 22083AJ  22242.91667824 -.01050362  00000-0 -11533-1 0  9992,2 53164  53.2176 187.5750 0001061  82.7873 242.6899 15.65357695  7628,6750.347,91.992,372.92800000000005,371.496,0.0
53164.0,STARLINK-4116,PAYLOAD,2022-08-31 14:00:01,15.63837087,0.0001167,53.2176,184.3216,71.1653,51.4764,-0.012226,-0.01047982,0.0,0 STARLINK-4116,1 53164U 22083AJ  22243.58334491 -.01047982  00000-0 -12226-1 0  9991,2 53164  53.2176 184.3216 0001167  71.1653  51.4764 15.63837087  1307,6754.722,92.081,377.376,375.799,0.0
53164.0,STARLINK-4116,PAYLOAD,2022-08-31 20:00:01,15.63267041,0.0001158,53.2177,183.1036,72.8531,17.7832,-0.012484,-0.01062546,0.0,0 STARLINK-4116,1 53164U 22083AJ  22243.83334491 -.01062546  00000-0 -12484-1 0  9998,2 53164  53.2177 183.1036 0001158  72.8531  17.7832 15.63267041  7773,6756.364000000001,92.115,379.012,377.447,0.0
53164.0,STARLINK-4116,PAYLOAD,2022-08-31 22:00:00,15.63110734,0.0001165999999999,53.2172,182.6965,81.1816,118.6552,-0.013125,-0.01105873,0.0,0 STARLINK-4116,1 53164U 22083AJ  22243.91667824 -.01105873  00000-0 -13125-1 0  9990,2 53164  53.2172 182.6965 0001166  81.1816 118.6552 15.63110734  1300,6756.815,92.124,379.468,377.892,0.0
53164.0,STARLINK-4116,PAYLOAD,2022-09-01 12:00:00,15.61751331,0.0001193,53.2174,179.8617,80.8928,161.8857,-0.013332,-0.01068514,0.0,0 STARLINK-4116,1 53164U 22083AJ  22244.50001157 -.01068514  00000-0 -13332-1 0  9997,2 53164  53.2174 179.8617 0001193  80.8928 161.8857 15.61751331  7872,6760.735,92.204,383.407,381.794,0.0
53164.0,STARLINK-4116,PAYLOAD,2022-09-01 14:00:01,15.61559066,0.0001034,53.2175,179.4563,69.7192,281.8868,-0.0133789999999999,-0.01064591,0.0,0 STARLINK-4116,1 53164U 22083AJ  22244.58335648 -.01064591  00000-0 -13379-1 0  9992,2 53164  53.2175 179.4563 0001034  69.7192 281.8868 15.61559066  1300,6761.29,92.216,383.854,382.456,0.0
53164.0,STARLINK-4116,PAYLOAD,2022-09-01 22:00:00,15.60800429,0.0001149999999999,53.2176,177.8384,65.4322,0.5827,-0.013789,-0.01065289,0.0,0 STARLINK-4116,1 53164U 22083AJ  22244.91667824 -.01065289  00000-0 -13789-1 0  9993,2 53164  53.2176 177.8384 0001150  65.4322   0.5827 15.60800429  1303,6763.481,92.26,386.124,384.568,0.0
53164.0,STARLINK-4116,PAYLOAD,2022-09-02 06:00:00,15.60054648,0.0001252999999999,53.217,176.2223,71.5331,68.0348,-0.014407,-0.01079991,0.0,0 STARLINK-4116,1 53164U 22083AJ  22245.25001157 -.01079991  00000-0 -14407-1 0  9995,2 53164  53.2170 176.2223 0001253  71.5331  68.0348 15.60054648  7996,6765.636,92.304,388.349,386.653,0.0
53164.0,STARLINK-4116,PAYLOAD,2022-09-02 14:00:01,15.59279735,0.0001205999999999,53.2176,174.6072,82.4489,129.7781,-0.01457,-0.01061917,0.0,0 STARLINK-4116,1 53164U 22083AJ  22245.58334491 -.01061917  00000-0 -14570-1 0  9991,2 53164  53.2176 174.6072 0001206  82.4489 129.7781 15.59279735  1308,6767.877,92.35,390.559,388.926,0.0
53164.0,STARLINK-4116,PAYLOAD,2022-09-02 22:00:01,15.58540428,0.0001155,53.2172,172.9928,78.3885,205.631,-0.015409,-0.01089071,0.0,0 STARLINK-4116,1 53164U 22083AJ  22245.91668981 -.01089071  00000-0 -15409-1 0  9995,2 53164  53.2172 172.9928 0001155  78.3885 205.6310 15.58540428  1303,6770.018,92.394,392.664,391.101,0.0
53164.0,STARLINK-4116,PAYLOAD,2022-09-03 06:00:00,15.57759876,0.0001094999999999,53.2175,171.3855,63.8499,290.9365,-0.015402,-0.01059649,0.0,0 STARLINK-4116,1 53164U 22083AJ  22246.25001157 -.01059649  00000-0 -15402-1 0  9990,2 53164  53.2175 171.3855 0001095  63.8499 290.9365 15.57759876  8145,6772.279,92.44,394.885,393.402,0.0
53164.0,STARLINK-4116,PAYLOAD,2022-09-03 14:00:01,15.56999765,0.0001072999999999,53.2175,169.7744,72.4358,352.2638,-0.0158449999999999,-0.01059341,0.0,0 STARLINK-4116,1 53164U 22083AJ  22246.58334491 -.01059341  00000-0 -15845-1 0  9996,2 53164  53.2175 169.7744 0001073  72.4358 352.2638 15.56999765  1307,6774.483,92.486,397.075,395.621,0.0
53164.0,STARLINK-4116,PAYLOAD,2022-09-03 20:00:01,15.56431918,0.0001066999999999,53.2177,168.5689,77.1774,309.3556,-0.016219,-0.01061292,0.0,0 STARLINK-4116,1 53164U 22083AJ  22246.83334491 -.01061292  00000-0 -16219-1 0  9998,2 53164  53.2177 168.5689 0001067  77.1774 309.3556 15.56431918  8233,6776.13,92.519,398.718,397.272,0.0
53164.0,STARLINK-4116,PAYLOAD,2022-09-03 22:00:00,15.56241848,0.0001235,53.2177,168.1679,72.6979,60.9991,-0.016336,-0.01061414,0.0,0 STARLINK-4116,1 53164U 22083AJ  22246.91667824 -.01061414  00000-0 -16336-1 0  9992,2 53164  53.2177 168.1679 0001235  72.6979  60.9991 15.56241848  1307,6776.682,92.531,399.384,397.71,0.0
53164.0,STARLINK-4116,PAYLOAD,2022-09-04 12:00:00,15.54913595,0.0001262999999999,53.2175,165.3594,73.0213,89.2271,-0.01718,-0.01062363,0.0,0 STARLINK-4116,1 53164U 22083AJ  22247.50001157 -.01062363  00000-0 -17180-1 0  9991,2 53164  53.2175 165.3594 0001263  73.0213  89.2271 15.54913595  8346,6780.541,92.61,403.262,401.549,0.0
53164.0,STARLINK-4116,PAYLOAD,2022-09-04 14:00:01,15.54721504,0.0001149999999999,53.2174,164.9583,80.8429,188.1791,-0.0172389999999999,-0.01058785,0.0,0 STARLINK-4116,1 53164U 22083AJ  22247.58335648 -.01058785  00000-0 -17239-1 0  9992,2 53164  53.2174 164.9583 0001150  80.8429 188.1791 15.54721504  1300,6781.099,92.621,403.744,402.184,0.0
53164.0,STARLINK-4116,PAYLOAD,2022-09-04 20:00:01,15.54152698,0.0001274,53.2175,163.7571,80.0596,148.6779,-0.017613,-0.01059294,0.0,0 STARLINK-4116,1 53164U 22083AJ  22247.83334491 -.01059294  00000-0 -17613-1 0  9997,2 53164  53.2175 163.7571 0001274  80.0596 148.6779 15.54152698  1308,6782.754,92.655,405.483,403.755,0.0
53164.0,STARLINK-4116,PAYLOAD,2022-09-05 04:00:00,15.53393208,0.0001158,53.2174,162.1586,86.0665,208.2462,-0.018115,-0.01059499,0.0,0 STARLINK-4116,1 53164U 22083AJ  22248.16667824 -.01059499  00000-0 -18115-1 0  9998,2 53164  53.2174 162.1586 0001158  86.0665 208.2462 15.53393208  8447,6784.964,92.7,407.615,406.044,0.0
53164.0,STARLINK-4116,PAYLOAD,2022-09-05 14:00:01,15.52442365,0.0001165,53.2174,160.1586,70.6615,34.3399,-0.018711,-0.01057305,0.0,0 STARLINK-4116,1 53164U 22083AJ  22248.58334491 -.01057305  00000-0 -18711-1 0  9991,2 53164  53.2174 160.1586 0001165  70.6615  34.3399 15.52442365  1300,6787.735,92.757,410.39,408.809,0.0
53164.0,STARLINK-4116,PAYLOAD,2022-09-05 20:00:01,15.5187477,0.0001136,53.2175,158.9616,72.6904,350.0374,-0.019155,-0.01060077,0.0,0 STARLINK-4116,1 53164U 22083AJ  22248.83334491 -.01060077  00000-0 -19155-1 0  9992,2 53164  53.2175 158.9616 0001136  72.6904 350.0374 15.51874770  8554,6789.39,92.791,412.026,410.483,0.0
53164.0,STARLINK-4116,PAYLOAD,2022-09-05 22:00:00,15.51683121,0.0001271,53.2175,158.5633,73.5822,94.941,-0.019228,-0.01057107,0.0,0 STARLINK-4116,1 53164U 22083AJ  22248.91667824 -.01057107  00000-0 -19228-1 0  9991,2 53164  53.2175 158.5633 0001271  73.5822  94.9410 15.51683121  1307,6789.949000000001,92.802,412.677,410.951,0.0
53164.0,STARLINK-4116,PAYLOAD,2022-09-06 12:00:00,15.50253032,0.0001016,53.2176,155.7722,72.7446,114.7577,-0.0085945,-0.00466317,0.0,0 STARLINK-4116,1 53164U 22083AJ  22249.50001157 -.00466317  00000-0 -85945-2 0  9994,2 53164  53.2176 155.7722 0001016  72.7446 114.7577 15.50253032  8659,6794.124,92.888,416.679,415.298,0.0
53164.0,STARLINK-4116,PAYLOAD,2022-09-06 14:00:01,15.50111469,0.0001062,53.2174,155.3736,74.5565,218.2854,-0.0058528999999999,-0.00321914,0.0,0 STARLINK-4116,1 53164U 22083AJ  22249.58334491 -.00321914  00000-0 -58529-2 0  9993,2 53164  53.2174 155.3736 0001062  74.5565 218.2854 15.50111469  1301,6794.5369999999975,92.897,417.124,415.681,0.0
53164.0,STARLINK-4116,PAYLOAD,2022-09-06 20:00:01,15.498849599999998,0.0001224,53.2177,154.1793,71.9474,176.7058,2.412300000000001e-05,9.18e-06,0.0,0 STARLINK-4116,1 53164U 22083AJ  22249.83334491  .00000918  00000-0  24123-4 0  9992,2 53164  53.2177 154.1793 0001224  71.9474 176.7058 15.49884960  8700,6795.199000000001,92.91,417.896,416.233,0.0
53164.0,STARLINK-4116,PAYLOAD,2022-09-06 22:00:00,15.4988584,0.0001268,53.2176,153.7816,69.0013,284.8799,-7.2611e-06,-8.63e-06,0.0,0 STARLINK-4116,1 53164U 22083AJ  22249.91667824 -.00000863  00000-0 -72611-5 0  9997,2 53164  53.2176 153.7816 0001268  69.0013 284.8799 15.49885840  1305,6795.196999999999,92.91,417.923,416.2,0.0
53164.0,STARLINK-4116,PAYLOAD,2022-09-07 04:00:00,15.49951194,0.0001132,53.2154,152.5772,65.2865,244.3342,-0.000957,-0.00054516,0.0,0 STARLINK-4116,1 53164U 22083AJ  22250.16667824 -.00054516  00000-0 -95700-3 0  9992,2 53164  53.2154 152.5772 0001132  65.2865 244.3342 15.49951194  8759,6795.005999999999,92.906,417.64,416.102,0.0
53164.0,STARLINK-4116,PAYLOAD,2022-09-07 14:00:01,15.49869475,9.05e-05,53.216,150.5837,77.7876,38.0292,0.00093545,0.00052971,0.0,0 STARLINK-4116,1 53164U 22083AJ  22250.58334491  .00052971  00000-0  93545-3 0  9995,2 53164  53.2160 150.5837 0000905  77.7876  38.0292 15.49869475  1309,6795.245,92.911,417.725,416.495,0.0
53164.0,STARLINK-4116,PAYLOAD,2022-09-07 22:00:00,15.49916559,0.0001102,53.2168,148.99200000000005,73.2852,103.4494,-0.00183,-0.00103071,0.0,0 STARLINK-4116,1 53164U 22083AJ  22250.91667824 -.00103071  00000-0 -18300-2 0  9996,2 53164  53.2168 148.9920 0001102  73.2852 103.4494 15.49916559  1303,6795.107,92.908,417.721,416.223,0.0
53164.0,STARLINK-4116,PAYLOAD,2022-09-08 06:00:00,15.49857519,0.0001152,53.2164,147.3996,69.2955,168.3478,0.00042876,0.00023934,0.0,0 STARLINK-4116,1 53164U 22083AJ  22251.25001157  .00023934  00000-0  42876-3 0  9998,2 53164  53.2164 147.3996 0001152  69.2955 168.3478 15.49857519  8926,6795.28,92.912,417.927,416.362,0.0
